     2              NAVIGATION DATA                         RINEX VERSION / TYPE
CCRINEXN V1.6.0 UX  CDDIS               10-APR-22 19:31     PGM / RUN BY / DATE 
IGS BROADCAST EPHEMERIS FILE                                COMMENT             
    0.1676D-07  0.1490D-07 -0.1192D-06 -0.5960D-07          ION ALPHA           
    0.1085D+06  0.3277D+05 -0.2621D+06 -0.6554D+05          ION BETA            
    0.186264514923D-08 0.355271367880D-14   147456     2205 DELTA-UTC: A0,A1,T,W
    18                                                      LEAP SECONDS        
                                                            END OF HEADER       
28 22  4  9 12  0  0.0 0.372861046344D-03-0.295585778076D-11 0.000000000000D+00
    0.110000000000D+02 0.475312500000D+02 0.448018661776D-08-0.730841088408D+00
    0.253319740295D-05 0.166411943501D-01 0.759959220886D-05 0.515368939209D+04
    0.561600000000D+06-0.191852450371D-06 0.147929516775D+01-0.100582838059D-06
    0.968589727501D+00 0.239656250000D+03-0.128225121918D+01-0.826248702289D-08
   -0.277511559470D-09 0.100000000000D+01 0.220400000000D+04 0.000000000000D+00
    0.200000000000D+01 0.630000000000D+02-0.111758708954D-07 0.110000000000D+02
    0.554418000000D+06 0.400000000000D+01 0.000000000000D+00 0.000000000000D+00
29 22  4  9 12  0  0.0-0.501095317304D-03-0.432009983342D-11 0.000000000000D+00
    0.880000000000D+02 0.611250000000D+02 0.388516183259D-08-0.104215098024D+01
    0.311806797981D-05 0.202073808760D-02 0.642798841000D-05 0.515372878456D+04
    0.561600000000D+06-0.484287738800D-07 0.250848598410D+01 0.260770320892D-07
    0.981345866983D+00 0.265843750000D+03 0.223620797547D+01-0.784139805427D-08
   -0.550022910662D-10 0.100000000000D+01 0.220400000000D+04 0.000000000000D+00
    0.280000000000D+01 0.000000000000D+00-0.102445483208D-07 0.880000000000D+02
    0.554418000000D+06 0.400000000000D+01 0.000000000000D+00 0.000000000000D+00
30 22  4  9 12  0  0.0-0.522945076227D-03-0.181898940355D-11 0.000000000000D+00
    0.700000000000D+01 0.200312500000D+02 0.537058084911D-08 0.225357795377D+01
    0.108778476715D-05 0.567702832632D-02 0.749714672566D-05 0.515378407288D+04
    0.561600000000D+06-0.156462192535D-06 0.356570864128D+00 0.391155481338D-07
    0.936400200347D+00 0.225906250000D+03-0.272187897408D+01-0.827463038586D-08
   -0.403588239642D-10 0.100000000000D+01 0.220400000000D+04 0.000000000000D+00
    0.200000000000D+01 0.000000000000D+00 0.372529029846D-08 0.700000000000D+01
    0.554418000000D+06 0.400000000000D+01 0.000000000000D+00 0.000000000000D+00
32 22  4  9 12  0  0.0-0.101775862277D-03-0.795807864051D-11 0.000000000000D+00
    0.390000000000D+02-0.271250000000D+02 0.469948146655D-08-0.539362554204D+00
   -0.127218663693D-05 0.585545238573D-02 0.850856304169D-05 0.515358493424D+04
    0.561600000000D+06 0.931322574616D-08-0.715835646548D+00 0.689178705216D-07
    0.958087968187D+00 0.216312500000D+03-0.230421825871D+01-0.801426239763D-08
    0.257867884090D-09 0.100000000000D+01 0.220400000000D+04 0.000000000000D+00
    0.200000000000D+01 0.000000000000D+00 0.465661287308D-09 0.390000000000D+02
    0.554457000000D+06 0.400000000000D+01 0.000000000000D+00 0.000000000000D+00
 1 22  4  9 14  0  0.0 0.389002263546D-03-0.875388650456D-11 0.000000000000D+00
    0.420000000000D+02-0.183125000000D+02 0.370229707268D-08-0.233945318631D+01
   -0.933185219765D-06 0.116948729847D-01 0.449828803539D-05 0.515366969490D+04
    0.568800000000D+06 0.763684511185D-07-0.279002185913D+01-0.931322574615D-07
    0.987622440930D+00 0.306250000000D+03 0.890010516533D+00-0.765317592835D-08
    0.131791203918D-09 0.100000000000D+01 0.220400000000D+04 0.000000000000D+00
    0.200000000000D+01 0.000000000000D+00 0.512227416039D-08 0.420000000000D+02
    0.561618000000D+06 0.400000000000D+01 0.000000000000D+00 0.000000000000D+00
 2 22  4  9 14  0  0.0-0.653007999062D-03-0.227373675443D-12 0.000000000000D+00
    0.450000000000D+02-0.812500000000D+01 0.420517516242D-08-0.219809736054D+01
   -0.175088644028D-06 0.205292226747D-01 0.366196036339D-05 0.515364384460D+04
    0.568800000000D+06 0.290572643280D-06-0.288034940824D+01 0.193715095520D-06
    0.965852411744D+00 0.311125000000D+03-0.142589501811D+01-0.785068415536D-08
    0.128576784311D-10 0.100000000000D+01 0.220400000000D+04 0.000000000000D+00
    0.200000000000D+01 0.000000000000D+00-0.176951289177D-07 0.450000000000D+02
    0.563419000000D+06 0.400000000000D+01 0.000000000000D+00 0.000000000000D+00
 3 22  4  9 14  0  0.0-0.199592672288D-03-0.154614099301D-10 0.000000000000D+00
    0.430000000000D+02-0.648750000000D+02 0.401302430143D-08 0.281978091906D+01
   -0.335648655891D-05 0.402228662278D-02 0.666081905365D-05 0.515365132904D+04
    0.568800000000D+06 0.447034835815D-07-0.175565931430D+01-0.558793544769D-08
    0.972929955284D+00 0.258000000000D+03 0.941712854646D+00-0.778603860547D-08
    0.186793494985D-09 0.100000000000D+01 0.220400000000D+04 0.000000000000D+00
    0.200000000000D+01 0.000000000000D+00 0.186264514923D-08 0.430000000000D+02
    0.561649000000D+06 0.400000000000D+01 0.000000000000D+00 0.000000000000D+00
 4 22  4  9 14  0  0.0-0.177299603820D-03 0.306954461848D-11 0.000000000000D+00
    0.630000000000D+02-0.254375000000D+02 0.450483050142D-08-0.608445413862D+00
   -0.127777457237D-05 0.176767946687D-02 0.849552452564D-05 0.515363202667D+04
    0.568800000000D+06 0.558793544769D-08-0.673939356576D+00-0.931322574616D-08
    0.961267130554D+00 0.213000000000D+03-0.298936524574D+01-0.792640159501D-08
    0.306798493674D-09 0.100000000000D+01 0.220400000000D+04 0.000000000000D+00
    0.200000000000D+01 0.000000000000D+00-0.419095158577D-08 0.319000000000D+03
    0.561650000000D+06 0.400000000000D+01 0.000000000000D+00 0.000000000000D+00
 5 22  4  9 14  0  0.0-0.776881352067D-04-0.136424205266D-11 0.000000000000D+00
    0.360000000000D+02-0.767812500000D+02 0.435625288399D-08 0.322661455870D+00
   -0.388175249100D-05 0.590908189770D-02 0.683218240738D-05 0.515370253372D+04
    0.568800000000D+06-0.117346644402D-06-0.179678114422D+01 0.894069671631D-07
    0.959950820273D+00 0.247468750000D+03 0.100819655214D+01-0.809962309610D-08
    0.111076055335D-09 0.100000000000D+01 0.220400000000D+04 0.000000000000D+00
    0.200000000000D+01 0.000000000000D+00-0.111758708954D-07 0.360000000000D+02
    0.561618000000D+06 0.400000000000D+01 0.000000000000D+00 0.000000000000D+00
 6 22  4  9 14  0  0.0 0.260608736426D-03 0.135287336889D-10 0.000000000000D+00
    0.550000000000D+02-0.164062500000D+02 0.388801909446D-08-0.208053268037D+01
   -0.815838575363D-06 0.266341574024D-02 0.462122261524D-05 0.515370233345D+04
    0.568800000000D+06 0.242143869400D-07-0.279829337935D+01 0.409781932831D-07
    0.986979485509D+00 0.306125000000D+03-0.887368552313D+00-0.791211528565D-08
    0.317870383435D-10 0.100000000000D+01 0.220400000000D+04 0.000000000000D+00
    0.200000000000D+01 0.000000000000D+00 0.372529029846D-08 0.550000000000D+02
    0.561651000000D+06 0.400000000000D+01 0.000000000000D+00 0.000000000000D+00
 7 22  4  9 14  0  0.0 0.319622922689D-03 0.125055521494D-11 0.000000000000D+00
    0.640000000000D+02 0.178437500000D+02 0.493199115151D-08-0.301401718258D+01
    0.720843672752D-06 0.158545528538D-01 0.764429569244D-05 0.515367322922D+04
    0.568800000000D+06 0.521540641785D-07 0.344183472166D+00-0.331550836563D-06
    0.951250016981D+00 0.227750000000D+03-0.227925375479D+01-0.789640034534D-08
    0.892894335490D-11 0.100000000000D+01 0.220400000000D+04 0.000000000000D+00
    0.200000000000D+01 0.000000000000D+00-0.111758708954D-07 0.640000000000D+02
    0.561652000000D+06 0.400000000000D+01 0.000000000000D+00 0.000000000000D+00
 8 22  4  9 14  0  0.0-0.632256269455D-04-0.147792889038D-11 0.000000000000D+00
    0.420000000000D+02 0.475625000000D+02 0.438982571100D-08-0.133397963966D+00
    0.237487256527D-05 0.742792605888D-02 0.629574060440D-05 0.515374486733D+04
    0.568800000000D+06 0.968575477600D-07 0.241259584699D+01 0.316649675369D-07
    0.964070716501D+00 0.258312500000D+03 0.147659838214D+00-0.814141055100D-08
   -0.208222959036D-09 0.100000000000D+01 0.220400000000D+04 0.000000000000D+00
    0.200000000000D+01 0.000000000000D+00 0.512227416039D-08 0.420000000000D+02
    0.567193000000D+06 0.400000000000D+01 0.000000000000D+00 0.000000000000D+00
 9 22  4  9 14  0  0.0-0.344813801348D-03 0.238742359215D-11 0.000000000000D+00
    0.200000000000D+02-0.254687500000D+02 0.468233789531D-08 0.318992202780D+00
   -0.147521495819D-05 0.211603788193D-02 0.842288136482D-05 0.515358819008D+04
    0.568800000000D+06-0.260770320892D-07-0.727326562311D+00-0.931322574616D-08
    0.954252112134D+00 0.210000000000D+03 0.187691303353D+01-0.805354974839D-08
    0.292155026572D-09 0.100000000000D+01 0.220400000000D+04 0.000000000000D+00
    0.200000000000D+01 0.000000000000D+00 0.139698386192D-08 0.200000000000D+02
    0.561667000000D+06 0.400000000000D+01 0.000000000000D+00 0.000000000000D+00
10 22  4  9 14  0  0.0-0.373597256839D-03-0.125055521494D-10 0.000000000000D+00
    0.490000000000D+02-0.851875000000D+02 0.410195657724D-08 0.189810415239D+01
   -0.435300171375D-05 0.755328708328D-02 0.651925802231D-05 0.515368423843D+04
    0.568800000000D+06-0.150874257088D-06-0.175843037080D+01-0.130385160446D-07
    0.972745658327D+00 0.260250000000D+03-0.249369518012D+01-0.791068665471D-08
    0.950039572962D-10 0.100000000000D+01 0.220400000000D+04 0.000000000000D+00
    0.200000000000D+01 0.000000000000D+00 0.232830643654D-08 0.490000000000D+02
    0.561618000000D+06 0.400000000000D+01 0.000000000000D+00 0.000000000000D+00
